NORAD_CAT_ID,OBJECT_NAME,OBJECT_TYPE,EPOCH,MEAN_MOTION,ECCENTRICITY,INCLINATION,RA_OF_ASC_NODE,ARG_OF_PERICENTER,MEAN_ANOMALY,BSTAR,MEAN_MOTION_DOT,MEAN_MOTION_DDOT,TLE_LINE0,TLE_LINE1,TLE_LINE2,SEMIMAJOR_AXIS,PERIOD,APOGEE,PERIGEE,DECAYED
51738.0,STARLINK-3515,PAYLOAD,2024-05-07 15:00:41,15.08837142,0.0001469,53.2176,91.6415,90.7476,269.3685,-3.6634e-05,-8.71e-06,0.0,0 STARLINK-3515,1 51738U 22016AA  24128.62548421 -.00000871  00000-0 -36634-4 0  9998,2 51738  53.2176  91.6415 0001469  90.7476 269.3685 15.08837142123362,6917.889,95.438,540.77,538.738,0.0
51738.0,STARLINK-3515,PAYLOAD,2024-05-08 03:43:47,15.08836581,0.0001463,53.2173,89.2606,93.8262,266.2898,-8.6685e-05,-1.667e-05,0.0,0 STARLINK-3515,1 51738U 22016AA  24129.15540679 -.00001667  00000-0 -86685-4 0  9999,2 51738  53.2173  89.2606 0001463  93.8262 266.2898 15.08836581123442,6917.891,95.438,540.768,538.744,0.0
51738.0,STARLINK-3515,PAYLOAD,2024-05-08 06:54:33,15.08842396,0.0001478,53.2175,88.6673,87.932,272.1841,-2.2899e-05,-6.52e-06,0.0,0 STARLINK-3515,1 51738U 22016AA  24129.28788234 -.00000652  00000-0 -22899-4 0  9994,2 51738  53.2175  88.6673 0001478  87.9320 272.1841 15.08842396123463,6917.873,95.437,540.761,538.716,0.0
51738.0,STARLINK-3515,PAYLOAD,2024-05-08 14:51:28,15.08841146,0.0001473,53.2176,87.1802,91.0815,269.0346,-7.8386e-06,-4.13e-06,0.0,0 STARLINK-3515,1 51738U 22016AA  24129.61908253 -.00000413  00000-0 -78386-5 0  9994,2 51738  53.2176  87.1802 0001473  91.0815 269.0346 15.08841146123515,6917.877,95.437,540.761,538.723,0.0
51738.0,STARLINK-3515,PAYLOAD,2024-05-09 03:34:32,15.08855793,0.000127,53.217,84.8013,98.9029,261.2107,0.00010413,1.37e-05,0.0,0 STARLINK-3515,1 51738U 22016AA  24130.14898844  .00001370  00000-0  10413-3 0  9994,2 51738  53.2170  84.8013 0001270  98.9029 261.2107 15.08855793123595,6917.832,95.437,540.576,538.819,0.0
51738.0,STARLINK-3515,PAYLOAD,2024-05-09 06:45:18,15.08857477,0.0001305,53.217,84.2063,99.2561,260.8578,0.00012219,1.658e-05,0.0,0 STARLINK-3515,1 51738U 22016AA  24130.28146672  .00001658  00000-0  12219-3 0  9999,2 51738  53.2170  84.2063 0001305  99.2561 260.8578 15.08857477123619,6917.827,95.436,540.595,538.789,0.0
51738.0,STARLINK-3515,PAYLOAD,2024-05-10 03:25:20,15.08840177,0.0001369,53.2175,80.339,88.2184,271.8965,0.00018253,2.618e-05,0.0,0 STARLINK-3515,1 51738U 22016AA  24131.14260236  .00002618  00000-0  18253-3 0  9999,2 51738  53.2175  80.3390 0001369  88.2184 271.8965 15.08840177123748,6917.88,95.438,540.692,538.798,0.0
51738.0,STARLINK-3515,PAYLOAD,2024-05-10 06:36:07,15.08845193,0.0001368,53.2178,79.7443,87.7933,272.3216,0.00017402,2.483e-05,0.0,0 STARLINK-3515,1 51738U 22016AA  24131.27508125  .00002483  00000-0  17402-3 0  9990,2 51738  53.2178  79.7443 0001368  87.7933 272.3216 15.08845193123767,6917.865,95.437,540.676,538.783,0.0
51738.0,STARLINK-3515,PAYLOAD,2024-05-11 03:16:06,15.08880017,0.0001601,53.2175,75.8776,110.5397,249.5767,0.00052906,8.151e-05,0.0,0 STARLINK-3515,1 51738U 22016AA  24132.13618186  .00008151  00000-0  52906-3 0  9991,2 51738  53.2175  75.8776 0001601 110.5397 249.5767 15.08880017123894,6917.758,95.435,540.731,538.516,0.0
51738.0,STARLINK-3515,PAYLOAD,2024-05-11 12:48:23,15.08902343,0.0001247,53.2171,74.094,78.9754,281.1378,0.00081534,0.00012734,0.0,0 STARLINK-3515,1 51738U 22016AA  24132.53360342  .00012734  00000-0  81534-3 0  9994,2 51738  53.2171  74.0940 0001247  78.9754 281.1378 15.08902343123958,6917.69,95.434,540.417,538.692,0.0
51738.0,STARLINK-3515,PAYLOAD,2024-05-12 04:42:21,15.08723318,0.0001264,53.217,71.1223,67.5219,292.5907,-0.0025855,-0.00041071,0.0,0 STARLINK-3515,1 51738U 22016AA  24133.19607910 -.00041071  00000-0 -25855-2 0  9993,2 51738  53.2170  71.1223 0001264  67.5219 292.5907 15.08723318124057,6918.237,95.445,540.977,539.228,0.0
51738.0,STARLINK-3515,PAYLOAD,2024-05-12 12:39:18,15.08740636,0.0001118,53.2175,69.6358,83.627,276.4849,-0.0014588,-0.00023366,0.0,0 STARLINK-3515,1 51738U 22016AA  24133.52729893 -.00023366  00000-0 -14588-2 0  9993,2 51738  53.2175  69.6358 0001118  83.6270 276.4849 15.08740636124101,6918.184,95.444,540.823,539.276,0.0
51738.0,STARLINK-3515,PAYLOAD,2024-05-13 04:33:09,15.08820654,0.0001455,53.2172,66.6645,93.871,266.2448,0.0011187,0.00017551,0.0,0 STARLINK-3515,1 51738U 22016AA  24134.18969874  .00017551  00000-0  11187-2 0  9990,2 51738  53.2172  66.6645 0001455  93.8710 266.2448 15.08820654124202,6917.94,95.439,540.811,538.798,0.0
51738.0,STARLINK-3515,PAYLOAD,2024-05-13 12:30:05,15.08834328,0.000144,53.217,65.1757,84.4377,275.6779,0.0015977,0.00025227,0.0,0 STARLINK-3515,1 51738U 22016AA  24134.52090277  .00025227  00000-0  15977-2 0  9990,2 51738  53.2170  65.1757 0001440  84.4377 275.6779 15.08834328124256,6917.898,95.438,540.759,538.767,0.0
51738.0,STARLINK-3515,PAYLOAD,2024-05-14 04:23:56,15.08880777,0.0001294,53.2167,62.2025,85.8613,274.2527,0.0017426,0.00027585,0.0,0 STARLINK-3515,1 51738U 22016AA  24135.18328892  .00027585  00000-0  17426-2 0  9990,2 51738  53.2167  62.2025 0001294  85.8613 274.2527 15.08880777124359,6917.756,95.435,540.516,538.726,0.0
51738.0,STARLINK-3515,PAYLOAD,2024-05-14 12:20:50,15.08887089,0.0001535,53.2168,60.7154,99.7961,260.3205,0.00047506,7.29e-05,0.0,0 STARLINK-3515,1 51738U 22016AA  24135.51447435  .00007290  00000-0  47506-3 0  9996,2 51738  53.2168  60.7154 0001535  99.7961 260.3205 15.08887089124402,6917.736,95.435,540.663,538.54,0.0
51738.0,STARLINK-3515,PAYLOAD,2024-05-15 04:14:39,15.08904518,0.0001352,53.2162,57.739,101.1131,259.0014,0.00050187,7.722e-05,0.0,0 STARLINK-3515,1 51738U 22016AA  24136.17684604  .00007722  00000-0  50187-3 0  9999,2 51738  53.2162  57.7390 0001352 101.1131 259.0014 15.08904518124509,6917.683,95.433,540.483,538.613,0.0
51738.0,STARLINK-3515,PAYLOAD,2024-05-15 18:33:07,15.08860759,0.0001708,53.2181,55.0638,87.0915,273.0273,-8.462e-05,-1.635e-05,0.0,0 STARLINK-3515,1 51738U 22016AA  24136.77300694 -.00001635  00000-0 -84620-4 0  9998,2 51738  53.2181  55.0638 0001708  87.0915 273.0273 15.08860759124593,6917.817,95.436,540.864,538.5,0.0
51738.0,STARLINK-3515,PAYLOAD,2024-05-16 00:54:39,15.08869025,0.000153,53.2174,53.8751,94.694,265.4227,0.00046162,7.072e-05,0.0,0 STARLINK-3515,1 51738U 22016AA  24137.03796190  .00007072  00000-0  46162-3 0  9995,2 51738  53.2174  53.8751 0001530  94.6940 265.4227 15.08869025124636,6917.792,95.436,540.715,538.598,0.0
51738.0,STARLINK-3515,PAYLOAD,2024-05-16 12:02:21,15.08863841,0.0001659,53.218,51.7943,89.7701,270.3482,0.000898,0.00014042,0.0,0 STARLINK-3515,1 51738U 22016AA  24137.50164142  .00014042  00000-0  89800-3 0  9994,2 51738  53.2180  51.7943 0001659  89.7701 270.3482 15.08863841124701,6917.808,95.436,540.82,538.525,0.0
51738.0,STARLINK-3515,PAYLOAD,2024-05-16 18:23:54,15.08862456,0.0002704,53.2168,50.6027,98.672,261.4579,0.0015125,0.00023881,0.0,0 STARLINK-3515,1 51738U 22016AA  24137.76660368  .00023881  00000-0  15125-2 0  9992,2 51738  53.2168  50.6027 0002704  98.6720 261.4579 15.08862456124743,6917.812,95.436,541.547,537.806,0.0
51738.0,STARLINK-3515,PAYLOAD,2024-05-17 00:45:26,15.08851496,0.0001799,53.218,49.4153,110.1203,249.9983,0.0013335,0.00021005,0.0,0 STARLINK-3515,1 51738U 22016AA  24138.03156179  .00021005  00000-0  13335-2 0  9990,2 51738  53.2180  49.4153 0001799 110.1203 249.9983 15.08851496124788,6917.845,95.437,540.955,538.466,0.0
51738.0,STARLINK-3515,PAYLOAD,2024-05-17 21:25:28,15.08830913,0.0001351,53.2171,45.5498,98.46,261.6545,0.001103,0.00017305,0.0,0 STARLINK-3515,1 51738U 22016AA  24138.89269526  .00017305  00000-0  11030-2 0  9993,2 51738  53.2171  45.5498 0001351  98.4600 261.6545 15.08830913124911,6917.908,95.438,540.708,538.839,0.0
51738.0,STARLINK-3515,PAYLOAD,2024-05-18 00:36:15,15.08837344,0.0001073,53.2159,44.9565,86.2483,273.8631,0.00075464,0.00011742,0.0,0 STARLINK-3515,1 51738U 22016AA  24139.02517513  .00011742  00000-0  75464-3 0  9992,2 51738  53.2159  44.9565 0001073  86.2483 273.8631 15.08837344124938,6917.889,95.438,540.496,539.011,0.0
51738.0,STARLINK-3515,PAYLOAD,2024-05-18 10:08:33,15.08852909,0.0001191,53.2165,43.1734,90.445,269.6679,0.0012173,0.00019145,0.0,0 STARLINK-3515,1 51738U 22016AA  24139.42261407  .00019145  00000-0  12173-2 0  9996,2 51738  53.2165  43.1734 0001191  90.4450 269.6679 15.08852909124991,6917.841,95.437,540.53,538.882,0.0
51738.0,STARLINK-3515,PAYLOAD,2024-05-18 21:16:15,15.08865353,0.0001582,53.2179,41.0903,92.3893,267.728,0.0011299,0.00017753,0.0,0 STARLINK-3515,1 51738U 22016AA  24139.88628910  .00017753  00000-0  11299-2 0  9993,2 51738  53.2179  41.0903 0001582  92.3893 267.7280 15.08865353125060,6917.803,95.436,540.762,538.573,0.0
51738.0,STARLINK-3515,PAYLOAD,2024-05-18 22:51:38,15.08874892,0.0001617,53.2195,40.7943,100.9781,259.1394,0.0014964,0.0002363,0.0,0 STARLINK-3515,1 51738U 22016AA  24139.95252649  .00023630  00000-0  14964-2 0  9996,2 51738  53.2195  40.7943 0001617 100.9781 259.1394 15.08874892123965,6917.774,95.435,540.757,538.52,0.0
51738.0,STARLINK-3515,PAYLOAD,2024-05-19 00:27:01,15.08887824,0.0001331,53.2186,40.4977,81.5197,278.5946,0.0023564,0.00037463,0.0,0 STARLINK-3515,1 51738U 22016AA  24140.01876411  .00037463  00000-0  23564-2 0  9999,2 51738  53.2186  40.4977 0001331  81.5197 278.5946 15.08887824125089,6917.734,95.435,540.52,538.678,0.0
51738.0,STARLINK-3515,PAYLOAD,2024-05-19 21:07:03,15.08821998,9.79e-05,53.2177,36.6281,99.3634,260.7469,0.00076442,0.00011893,0.0,0 STARLINK-3515,1 51738U 22016AA  24140.87989853  .00011893  00000-0  76442-3 0  9991,2 51738  53.2177  36.6281 0000979  99.3634 260.7469 15.08821998125212,6917.935,95.439,540.478,539.123,0.0
51738.0,STARLINK-3515,PAYLOAD,2024-05-20 03:28:35,15.08828042,0.0001137,53.2174,35.4375,108.6694,251.4422,-2.1823e-05,-6.35e-06,0.0,0 STARLINK-3515,1 51738U 22016AA  24141.14485966 -.00000635  00000-0 -21823-4 0  9996,2 51738  53.2174  35.4375 0001137 108.6694 251.4422 15.08828042125254,6917.917,95.438,540.569,538.995,0.0
